CORAL                   
1 67684U 98067YA  26085.91518001  .00091956  00000+0  12280-2 0  9991
2 67684  51.6316 345.4355 0012525 237.5948 122.3833 15.57214206  7470
GXIBA-1                 
1 67685U 98067YB  26085.90450182  .00045917  00000+0  70422-3 0  9995
2 67685  51.6322 346.1136 0011847 245.0269 114.9491 15.53764904  7466
UITMSAT-2               
1 67686U 98067YC  26085.89103875  .00057075  00000+0  84531-3 0  9992
2 67686  51.6326 346.0269 0008918 216.2709 143.7678 15.54663551  7465
HMU-SAT2                
1 67687U 98067YD  26085.90911755  .00046471  00000+0  72008-3 0  9993
2 67687  51.6329 346.1473 0008473 219.3476 140.6899 15.53514608  7387
LEOPARD                 
1 67688U 98067YE  26085.89717981  .00051528  00000+0  77591-3 0  9998
2 67688  51.6328 346.0671 0008647 216.4648 143.5755 15.54255805  7383
CREW DRAGON 12          
1 67796U 26031A   26085.80952178  .00012890  00000+0  24531-3 0  9995
2 67796  51.6341 347.7277 0006206 236.0994 123.9405 15.48566257558923
PROGRESS-MS 33          
1 68319U 26058A   26085.80952178  .00012890  00000+0  24531-3 0  9996
2 68319  51.6341 347.7277 0006206 236.0994 123.9405 15.48566257   433
